#dP2022  4  3 12  0  0.00000000      96 __u+U ITR00 EXT  IAC
## 2204  43200.00000000   900.00000000 59672 0.5000000000000
+  117   C06C07C08C09C10C11C12C13C14C16C19C20C21C22C23C24C25
+        C26C27C28C29C30C32C33C34C35C36C37C38C39C40C41C42C43
+        C44C45C46E01E02E03E04E05E07E08E09E10E11E12E13E14E15
+        E18E19E21E24E25E26E27E30E31E33E34E36G01G02G03G04G05
+        G06G07G08G09G10G11G12G13G14G15G16G17G18G19G20G21G22
+        G23G24G25G26G27G28G29G30G31G32J02J03R01R02R03R04R05
+        R07R08R09R11R12R13R14R15R17R18R19R20R21R22R24  0  0
++         8  9  9  9 10  9  9  9  9  8  9  9 10  7  8  9 10
++         9  7  9  9  8  9  9  8  8  8  7 10 10 10  7  7  9
++         8  7  8  8  9  7  7  8  8  9  8  9 11 10  7  8  7
++         8  8  7  8  7  9  7  8  8  9  7  9  8  7  8  8  7
++         8  7  6  8  8  7  7  9  8  8  8  8  7  8  7  7  7
++         9  8  8  7  8  9  8  7  8  7 11  9  7  7  7  8  9
++         9  7  8  8  8  9  7  7  8  8  7  9 10 11  9  0  0
%c M  cc GPS ccc cccc cccc cccc cccc ccccc ccccc ccccc ccccc
%c cc cc ccc ccc cccc cccc cccc cccc ccccc ccccc ccccc ccccc
%f  0.0000000  0.000000000  0.00000000000  0.000000000000000
%f  0.0000000  0.000000000  0.00000000000  0.000000000000000
%i    0    0    0    0      0      0      0      0         0
%i    0    0    0    0      0      0      0      0         0
/* IAC                                ULTRA-RAPID PREDICTION
/* S/V CLOCKS ARE ALIGNED TO GNSS TIME                      
/* G:C1WC2W R:C1PC2P E:C1XC5X C:C2IC6I J:C1CC2S             
/* PCV:IGS14_2196 OL/AL:FES2004  NONE     YN ORB:CoN CLK:CoN
*  2022 04 03 18 15  0.00000000
PC06  -3218.601334  36723.768027  20670.378747   -271.789273
PC07 -12469.491519  25171.879057 -31474.070219     52.712793
PC08 -19287.885448  35180.459007  12747.525893    237.284303
PC09   3718.438379  40862.281789  11113.957206   -663.487444
PC10  -3578.607899  26535.027905 -32332.678379    137.307022
PC11  11354.982898  25268.901099   3313.803641    269.499411
PC12   -664.061917  24244.721880 -13762.568115   -631.336828
PC13 -10641.302977  34992.076689  20888.762634    -71.006561
PC14  14738.077657  15011.766295  18333.028269    454.596100
PC16  -4261.257445  35531.829701  22661.315362    113.538125
PC19 -23029.717370 -11156.475570 -11125.272682    881.243456
PC20  -6262.614357 -16141.845189 -21870.949201   -865.859580
PC21 -15424.594752  11697.702601  20131.854157    -48.047704
PC22 -27158.021093    422.076547   6480.193232   -964.749893
PC23  21288.487544  -7747.898960 -16297.737385   -936.054413
PC24  -4396.336036  22933.164540 -15275.614103   -950.530179
PC25  13029.120529   9717.298695 -22693.209282   -756.305792
PC26 -16786.192867  22267.079132   -323.307245    756.919931
PC27   7487.075680 -18469.645699  19504.243251    702.177649
PC28  16634.690686    251.447599  22405.921485     51.087822
PC29 -16847.354789 -18761.118800 -11956.473881    536.470892
PC30  -6579.583683 -26439.780685   5959.223840    496.331278
PC32  15352.487507 -11791.486119 -20073.285948   -964.697804
PC33  22991.885442  11111.246288  11244.134651   -970.788686
PC34   7214.440555  26501.762954  -5032.179323   -433.701451
PC35 -16951.773266   -591.168995 -22161.850400    212.149977
PC36 -12408.591903 -10507.882378  22698.544496   -965.118351
PC37  17903.444110 -21406.902473   -780.541860   -929.502831
PC38 -22797.890186  34972.985337   5373.631050    222.598204
PC39  -7295.625889  31285.828857  27420.178576     34.937958
PC40 -17294.496133  18562.080619 -33732.328835    257.814549
PC41  27247.931559   -171.066523  -5962.039660   -969.641733
PC42   5051.454530  16235.629741  22173.297454   -945.755106
PC43  16622.589245  19360.797820  11319.068622   -932.126883
PC44  -7076.091311  18648.112288 -19544.562467    616.043129
PC45 -21248.247270   8046.634489  16185.646829    721.855533
PC46   3202.440596 -22425.836540  16318.832025   -252.530702
PE01  26069.258301   -156.237319 -14032.194930   -609.386087
PE02 -26121.587698    278.339991  13895.093318    290.490387
PE03 -25571.218471 -10079.992150  11004.141921   -544.205302
PE04  17396.649609  -6941.139600 -22909.514764   -998.684597
PE05 -18858.158411 -21506.480033  -7611.161590   -194.245228
PE07   1259.465603  20262.980324  21547.910616   -654.942098
PE08 -17038.503447   7191.148686  23119.637003   -506.180789
PE09  -1636.620323 -20240.748681 -21532.294748   -471.761169
PE10  10656.050601 -25157.504796  11377.831225   -504.449690
PE11   4809.911527 -29161.277960   1381.383729   4058.134300
PE12  14741.701947 -17286.497026  18959.614619   4680.976765
PE13  -5162.239563  29080.193577  -2074.363769    427.770455
PE14  18012.319559  16407.255089   3212.061453  -1801.257524
PE15 -14676.721339  17222.108760 -19084.013727    753.859708
PE18 -25973.743033 -11920.275853 -14502.598393  -1607.297457
PE19  25515.048068  12087.950862  -8886.166354  -2407.887813
PE21  12120.585517  12624.457311 -23879.105338   -726.337806
PE24  10995.367271 -18988.103200  19862.074792   -541.126947
PE25 -11839.250030 -12776.199657  23931.598497   -569.107410
PE26   7921.654452  23124.022984  16702.966787   -988.187835
PE27  -9598.142427  18973.305091 -20589.684881   -267.988644
PE30 -25999.707471  13481.975796  -4244.745687   -401.415052
PE31  25498.397114 -14109.438252   5212.205396   -494.509838
PE33  15495.420338   4764.401745  24771.573093   -457.953999
PE34 -15551.803849  -4482.998543 -24788.400483   -510.178849
PE36  -7318.403123 -23770.105012 -16035.044900   -354.533563
PG01  13476.535767 -19303.297349  11649.387632    393.439700
PG02 -14746.099389  -1589.647656 -21383.795985   -652.881074
PG03  20462.566261 -13030.911515 -10782.091266   -191.703407
PG04  10980.274788 -10512.352243 -21770.144009   -178.806058
PG05 -25854.360523   4586.617021  -4670.871237    -77.005527
PG06  -7357.822097 -18012.872618 -17975.452646    253.852465
PG07   4553.991370 -25709.435584   3449.976294    318.945502
PG08  18163.921496  -1211.610990  19428.055057    -62.450179
PG09    211.752435 -18571.945611 -19039.212210   -345.996622
PG10   7949.279977  13239.533266  21786.065963   -367.356425
PG11 -14983.409952  -2895.442250 -21743.548856    -47.334232
PG12 -23265.659455  10029.583307  -8019.739374   -194.823483
PG13 -19779.816400  -8407.097450  15562.684384    287.880260
PG14  -6324.365569 -14246.653697  21505.536503    -99.689320
PG15 -17866.398139   3986.177117  18940.026952    -71.753247
PG16  25481.985591   1503.144462  -8424.298862   -487.880360
PG17 -12683.441433 -22175.401546   7601.541304    595.686017
PG18  -5525.291906  25767.579671   2805.830662    204.395141
PG19 -17001.844052 -20541.569992   -612.557070    139.612749
PG20 -22675.988255   -810.853873 -13606.645170    515.996543
PG21  15782.001991  -8984.942811  19805.754635    160.098556
PG22  18306.298133  19182.804696  -2351.589517    237.662072
PG23  -4751.756753  16140.313619  20518.368866    -12.143420
PG24 -14262.294595  16180.194362  14929.096400    261.144442
PG25 -12023.398940  16075.295286 -17539.096945    307.145324
PG26  18712.261714   7466.376816 -17545.356888    195.882190
PG27  21571.677066  10185.694764  11881.016486    173.689456
PG28 -14745.774754 -11129.425839  19513.476537    374.063446
PG29  -2690.985004  17370.091378 -19943.827061   -498.953671
PG30  -1552.368138 -23984.837669  11101.643137   -522.042276
PG31   9517.377236  15643.726218 -19198.568958   -171.832238
PG32  16061.610458  20742.947593   4892.733864    -97.875053
PJ02 -35704.709889  19985.124890  -5535.943513     -2.446194
PJ03 -19925.170173  26216.729308 -21738.070546     -1.334363
PR01  -3254.542472 -12238.616675 -22137.543344      7.557844
PR02 -20517.621274 -11927.900457  -9220.409237    514.483650
PR03 -23775.828349  -4150.444158   8222.439097     54.275142
PR04 -13674.101655   5517.031658  20845.314122    134.950785
PR05   3904.944986  12321.075143  22011.560835     90.523911
PR07  23652.161032   3869.012465  -8755.012221     33.428489
PR08  13624.064405  -5664.508139 -20752.137896    -64.399398
PR09   9163.647230   6888.933106 -22769.162932     47.842324
PR11  18722.375561 -17291.539627    913.350010     42.014333
PR12   6911.509597 -17190.710833  17562.628309     17.749648
PR13  -8012.570068  -7601.752923  22972.841361    -20.346716
PR14 -19375.387649   7480.959462  14825.550593     76.124735
PR15 -18655.310255  17312.985982  -1694.276910     97.099315
PR17 -11053.554987  -2871.591785 -22805.280675    514.653122
PR18  -6368.677995  14806.343399 -19779.000027    112.397826
PR19    351.116221  24401.770625  -7432.728872   -184.015804
PR20   8711.401228  20386.904307  12667.410436    -67.931885
PR21  10770.902031   1272.645444  23084.598357   -290.473443
PR22   6101.795788 -15398.771194  19342.627557   -174.633167
PR24  -9631.635502 -19636.691462 -13116.669136     87.404006
EOF
